{
    "CCSDS_OMM_VERS": "3.0",
    "COMMENT": "GENERATED VIA SPACE-TRACK.ORG API",
    "CREATION_DATE": "2025-05-22T17:14:14",
    "ORIGINATOR": "18 SPCS",
    "OBJECT_NAME": "NAVSTAR 67 (USA 239)",
    "OBJECT_ID": "2012-053A",
    "CENTER_NAME": "EARTH",
    "REF_FRAME": "TEME",
    "TIME_SYSTEM": "UTC",
    "MEAN_ELEMENT_THEORY": "SGP4",
    "EPOCH": "2025-05-22T10:26:55.861728",
    "MEAN_MOTION": "2.00562597",
    "ECCENTRICITY": "0.01648600",
    "INCLINATION": "53.5359",
    "RA_OF_ASC_NODE": "159.5998",
    "ARG_OF_PERICENTER": "60.3874",
    "MEAN_ANOMALY": "301.3004",
    "EPHEMERIS_TYPE": "0",
    "CLASSIFICATION_TYPE": "U",
    "NORAD_CAT_ID": "38833",
    "ELEMENT_SET_NO": "999",
    "REV_AT_EPOCH": "9160",
    "BSTAR": "0.00000000000000",
    "MEAN_MOTION_DOT": "0.00000113",
    "MEAN_MOTION_DDOT": "0.0000000000000",
    "SEMIMAJOR_AXIS": "26560.437",
    "PERIOD": "717.980",
    "APOAPSIS": "20620.177",
    "PERIAPSIS": "19744.426",
    "OBJECT_TYPE": "PAYLOAD",
    "RCS_SIZE": "LARGE",
    "COUNTRY_CODE": "US",
    "LAUNCH_DATE": "2012-10-04",
    "SITE": "AFETR",
    "DECAY_DATE": null,
    "FILE": "4736220",
    "GP_ID": "288142125",
    "TLE_LINE0": "0 NAVSTAR 67 (USA 239)",
    "TLE_LINE1": "1 38833U 12053A   25142.43536877  .00000113  00000-0  00000-0 0  9998",
    "TLE_LINE2": "2 38833  53.5359 159.5998 0164860  60.3874 301.3004  2.00562597 91609"
}